OBJECT_NAME,OBJECT_ID,EPOCH,MEAN_MOTION,ECCENTRICITY,INCLINATION,RA_OF_ASC_NODE,ARG_OF_PERICENTER,MEAN_ANOMALY,EPHEMERIS_TYPE,CLASSIFICATION_TYPE,NORAD_CAT_ID,ELEMENT_SET_NO,REV_AT_EPOCH,BSTAR,MEAN_MOTION_DOT,MEAN_MOTION_DDOT
SAR-LUPE 2,2007-030A,2026-06-12T19:50:41.627616,15.49451040,.0006246,98.1031,267.7218,148.0024,212.1605,0,U,31797,999,5626,.30586E-3,.1673E-3,0
SAPPHIRE,2013-009C,2026-06-12T20:08:55.614912,14.35239431,.000999,98.4259,343.3986,261.1238,98.8817,0,U,39088,999,69595,.53043E-4,.109E-5,0
PRAETORIAN SDA_602,2025-203A,2026-06-12T19:58:07.467168,13.84342304,.0005544,81.3033,14.8035,196.2659,163.8321,0,U,65565,999,3809,.37251E-4,.54E-6,0
PRAETORIAN SDA_603,2025-203B,2026-06-12T20:34:34.324608,13.83905065,.000908,81.3038,14.6939,199.4751,160.6060,0,U,65566,999,3810,.17913E-3,.211E-5,0
PRAETORIAN SDA_604,2025-203C,2026-06-12T20:59:06.050976,13.83047127,.0005034,81.3056,15.0835,204.2276,155.8644,0,U,65567,999,3808,.51873E-4,.69E-6,0
PRAETORIAN SDA_605,2025-203D,2026-06-12T02:49:27.471648,13.83433835,.00078237,81.3021,15.4507,197.0815,163.0079,0,U,65568,999,3799,.37162282E-4,.53E-6,0
PRAETORIAN SDA_606,2025-203E,2026-06-12T19:45:39.656160,13.83406922,.0005487,81.3056,15.0178,193.1093,166.9921,0,U,65569,999,3808,.4969E-4,.67E-6,0
PRAETORIAN SDA_607,2025-203F,2026-06-12T02:40:23.408256,13.84284152,.00084154,81.3040,15.3468,201.8389,158.2410,0,U,65570,999,3800,.15193805E-3,.181E-5,0
PRAETORIAN SDA_608,2025-203G,2026-06-12T02:05:22.652736,13.83816383,.00055232,81.3009,15.5295,205.5901,154.4983,0,U,65571,999,3798,.40207448E-4,.56E-6,0
PRAETORIAN SDA_609,2025-203H,2026-06-12T21:19:30.808128,13.84242642,.0004943,81.3059,14.7636,212.5610,147.5243,0,U,65572,999,3810,-.17691E-2,-.1961E-4,0
PRAETORIAN SDA_610,2025-203J,2026-06-12T20:41:40.007040,13.83851555,.0006212,81.3010,14.7700,200.7714,159.3190,0,U,65573,999,3809,.36009E-4,.52E-6,0
PRAETORIAN SDA_611,2025-203K,2026-06-12T20:40:21.032256,13.83307729,.000512,81.3021,14.9342,208.0728,152.0153,0,U,65574,999,3808,.26169E-3,.299E-5,0
PRAETORIAN SDA_612,2025-203L,2026-06-12T20:33:10.022400,13.85038872,.0008837,81.3031,14.5347,198.9238,161.1592,0,U,65575,999,3811,.19514E-3,.233E-5,0
PRAETORIAN SDA_613,2025-203M,2026-06-12T20:47:36.908160,13.82764718,.0005315,81.3002,14.9219,196.2434,163.8552,0,U,65576,999,3808,.41262E-4,.57E-6,0
PRAETORIAN SDA_614,2025-203N,2026-06-12T20:16:24.381696,13.84777828,.0006774,81.3017,14.6220,195.8451,164.2495,0,U,65577,999,3811,.28154E-4,.44E-6,0
PRAETORIAN SDA_615,2025-203P,2026-06-12T02:20:52.630368,13.84435796,.00086643,81.3025,15.2753,199.6517,160.4307,0,U,65578,999,3800,.15170356E-3,.182E-5,0
PRAETORIAN SDA_616,2025-203Q,2026-06-12T01:33:17.506944,13.83267463,.0005046,81.3065,15.8113,207.3340,152.7551,0,U,65579,999,3797,.16586368E-3,.194E-5,0
PRAETORIAN SDA_617,2025-203R,2026-06-12T21:09:36.619776,13.83149890,.000703,81.3038,14.8880,196.1616,163.9317,0,U,65580,999,3809,.22853E-4,.37E-6,0
PRAETORIAN SDA_618,2025-203S,2026-06-12T20:37:48.314208,13.84669221,.0009306,81.3023,14.5003,199.9738,160.1056,0,U,65581,999,3811,.90909E-4,.114E-5,0
PRAETORIAN SDA_619,2025-203T,2026-06-12T19:41:33.893952,13.83804488,.0007862,81.3049,14.8269,198.1715,161.9162,0,U,65582,999,3872,.12393E-3,.149E-5,0
PRAETORIAN SDA_620,2025-203U,2026-06-12T20:21:01.057824,13.83617938,.0007272,81.3031,14.8217,193.0465,167.0505,0,U,65583,999,3809,.15865E-3,.187E-5,0
PRAETORIAN SDA_621,2025-203V,2026-06-12T02:22:55.050528,13.83800803,.00070789,81.3023,15.4345,192.8352,167.2625,0,U,65584,999,3799,.38561957E-4,.55E-6,0
PRAETORIAN SDA_601,2025-203W,2026-06-12T20:43:05.760768,13.83167332,.0004942,81.3047,15.0191,208.5495,151.5391,0,U,65585,999,3808,.45952E-4,.62E-6,0
